HERMES-2                
1 63243U 25052AK  26068.92847372  .00009456  00000+0  34839-3 0  9999
2 63243  97.4004 324.4926 0006340  99.4160 260.7796 15.28021069 54859
STARLINK-34198          
1 64388U 25127U   26068.31274676  .00027465  00000+0  10034-2 0  9997
2 64388  42.9952 181.5401 0001364 174.3802 185.7065 15.27593906 42411
